GHGSAT-C1               
1 46278U 20061G   26192.92053154  .00028142  00000+0  20519-3 0  9991
2 46278  97.2104 278.8887 0000793 179.5021 180.6244 15.73260389327364
GHGSAT-C2               
1 47509U 21006DA  26192.67884108  .00003860  00000+0  10509-3 0  9990
2 47509  97.2141 239.5247 0006832  84.5848 275.6176 15.38081098303619
GHGSAT-C3               
1 52737U 22057F   26192.95354028  .00004129  00000+0  12546-3 0  9992
2 52737  97.6620 339.5466 0006579  45.3640 314.8138 15.34654302229331
GHGSAT-C5               
1 52744U 22057N   26192.92763301  .00004086  00000+0  12425-3 0  9993
2 52744  97.6706 341.1224 0007269  42.3847 317.7955 15.34630659229336
GHGSAT-C4               
1 52746U 22057Q   26192.90903387  .00003977  00000+0  12098-3 0  9997
2 52746  97.6547 338.3067 0006468  30.2936 329.8679 15.34640517229330
GHGSAT-C8               
1 56186U 23054J   26192.89815735  .00010062  00000+0  15885-3 0  9994
2 56186  97.2969 102.5521 0003402  14.7692 345.3660 15.53702691182270
GHGSAT-C6               
1 56204U 23054AC  26192.99313308  .00010183  00000+0  16087-3 0  9994
2 56204  97.3031 103.3493 0003769 324.4310  35.6692 15.53681699182305
GHGSAT-C7               
1 56209U 23054AH  26192.98497845  .00007005  00000+0  12491-3 0  9991
2 56209  97.2980 101.6771 0005250 319.3528  40.7331 15.50399770182235
GHGSAT-C12              
1 64529U 25135B   26192.92914559  .00002188  00000+0  10350-3 0  9996
2 64529  97.4766 307.5210 0006484  89.9681 270.2298 15.20432985 58583
GHGSAT-C13              
1 64548U 25135W   26192.91892278  .00003532  00000+0  16067-3 0  9994
2 64548  97.4795 308.1200 0002023  70.8454 289.3001 15.21381362 58614
