{"fetched_at":"2026-07-12T07:15:38.558Z","source":"https://celestrak.org/NORAD/elements/gp.php?NAME=GHGSAT&FORMAT=JSON","constellation":"ghgsat","records":[{"OBJECT_NAME":"GHGSAT-C1","OBJECT_ID":"2020-061G","EPOCH":"2026-07-11T22:05:33.925056","CLASSIFICATION_TYPE":"U","MEAN_MOTION":15.73260389,"ECCENTRICITY":0.00007935,"INCLINATION":97.2104,"RA_OF_ASC_NODE":278.8887,"ARG_OF_PERICENTER":179.5021,"MEAN_ANOMALY":180.6244,"EPHEMERIS_TYPE":0,"NORAD_CAT_ID":46278,"ELEMENT_SET_NO":999,"REV_AT_EPOCH":32736,"BSTAR":0.00020518679,"MEAN_MOTION_DOT":0.00028142,"MEAN_MOTION_DDOT":0},{"OBJECT_NAME":"GHGSAT-C2","OBJECT_ID":"2021-006DA","EPOCH":"2026-07-11T16:17:31.869312","CLASSIFICATION_TYPE":"U","MEAN_MOTION":15.38081098,"ECCENTRICITY":0.00068328,"INCLINATION":97.2141,"RA_OF_ASC_NODE":239.5247,"ARG_OF_PERICENTER":84.5848,"MEAN_ANOMALY":275.6176,"EPHEMERIS_TYPE":0,"NORAD_CAT_ID":47509,"ELEMENT_SET_NO":999,"REV_AT_EPOCH":30361,"BSTAR":0.00010509093,"MEAN_MOTION_DOT":0.0000386,"MEAN_MOTION_DDOT":0},{"OBJECT_NAME":"GHGSAT-C3","OBJECT_ID":"2022-057F","EPOCH":"2026-07-11T22:53:05.880192","CLASSIFICATION_TYPE":"U","MEAN_MOTION":15.34654302,"ECCENTRICITY":0.00065793,"INCLINATION":97.662,"RA_OF_ASC_NODE":339.5466,"ARG_OF_PERICENTER":45.364,"MEAN_ANOMALY":314.8138,"EPHEMERIS_TYPE":0,"NORAD_CAT_ID":52737,"ELEMENT_SET_NO":999,"REV_AT_EPOCH":22933,"BSTAR":0.00012545914,"MEAN_MOTION_DOT":0.00004129,"MEAN_MOTION_DDOT":0},{"OBJECT_NAME":"GHGSAT-C5","OBJECT_ID":"2022-057N","EPOCH":"2026-07-11T22:15:47.492064","CLASSIFICATION_TYPE":"U","MEAN_MOTION":15.34630659,"ECCENTRICITY":0.00072699,"INCLINATION":97.6706,"RA_OF_ASC_NODE":341.1224,"ARG_OF_PERICENTER":42.3847,"MEAN_ANOMALY":317.7955,"EPHEMERIS_TYPE":0,"NORAD_CAT_ID":52744,"ELEMENT_SET_NO":999,"REV_AT_EPOCH":22933,"BSTAR":0.00012425394,"MEAN_MOTION_DOT":0.00004086,"MEAN_MOTION_DDOT":0},{"OBJECT_NAME":"GHGSAT-C4","OBJECT_ID":"2022-057Q","EPOCH":"2026-07-11T21:49:00.526368","CLASSIFICATION_TYPE":"U","MEAN_MOTION":15.34640517,"ECCENTRICITY":0.00064683,"INCLINATION":97.6547,"RA_OF_ASC_NODE":338.3067,"ARG_OF_PERICENTER":30.2936,"MEAN_ANOMALY":329.8679,"EPHEMERIS_TYPE":0,"NORAD_CAT_ID":52746,"ELEMENT_SET_NO":999,"REV_AT_EPOCH":22933,"BSTAR":0.00012098476,"MEAN_MOTION_DOT":0.00003977,"MEAN_MOTION_DDOT":0},{"OBJECT_NAME":"GHGSAT-C8","OBJECT_ID":"2023-054J","EPOCH":"2026-07-11T21:33:20.795040","CLASSIFICATION_TYPE":"U","MEAN_MOTION":15.53702691,"ECCENTRICITY":0.00034028,"INCLINATION":97.2969,"RA_OF_ASC_NODE":102.5521,"ARG_OF_PERICENTER":14.7692,"MEAN_ANOMALY":345.366,"EPHEMERIS_TYPE":0,"NORAD_CAT_ID":56186,"ELEMENT_SET_NO":999,"REV_AT_EPOCH":18227,"BSTAR":0.00015885163,"MEAN_MOTION_DOT":0.00010062,"MEAN_MOTION_DDOT":0},{"OBJECT_NAME":"GHGSAT-C6","OBJECT_ID":"2023-054AC","EPOCH":"2026-07-11T23:50:06.698112","CLASSIFICATION_TYPE":"U","MEAN_MOTION":15.53681699,"ECCENTRICITY":0.00037693,"INCLINATION":97.3031,"RA_OF_ASC_NODE":103.3493,"ARG_OF_PERICENTER":324.431,"MEAN_ANOMALY":35.6692,"EPHEMERIS_TYPE":0,"NORAD_CAT_ID":56204,"ELEMENT_SET_NO":999,"REV_AT_EPOCH":18230,"BSTAR":0.00016086541,"MEAN_MOTION_DOT":0.00010183,"MEAN_MOTION_DDOT":0},{"OBJECT_NAME":"GHGSAT-C7","OBJECT_ID":"2023-054AH","EPOCH":"2026-07-11T23:38:22.138080","CLASSIFICATION_TYPE":"U","MEAN_MOTION":15.5039977,"ECCENTRICITY":0.00052503,"INCLINATION":97.298,"RA_OF_ASC_NODE":101.6771,"ARG_OF_PERICENTER":319.3528,"MEAN_ANOMALY":40.7331,"EPHEMERIS_TYPE":0,"NORAD_CAT_ID":56209,"ELEMENT_SET_NO":999,"REV_AT_EPOCH":18223,"BSTAR":0.00012490948,"MEAN_MOTION_DOT":0.00007005,"MEAN_MOTION_DDOT":0},{"OBJECT_NAME":"GHGSAT-C12","OBJECT_ID":"2025-135B","EPOCH":"2026-07-11T22:17:58.178976","CLASSIFICATION_TYPE":"U","MEAN_MOTION":15.20432985,"ECCENTRICITY":0.00064841,"INCLINATION":97.4766,"RA_OF_ASC_NODE":307.521,"ARG_OF_PERICENTER":89.9681,"MEAN_ANOMALY":270.2298,"EPHEMERIS_TYPE":0,"NORAD_CAT_ID":64529,"ELEMENT_SET_NO":999,"REV_AT_EPOCH":5858,"BSTAR":0.00010349685,"MEAN_MOTION_DOT":0.00002188,"MEAN_MOTION_DDOT":0},{"OBJECT_NAME":"GHGSAT-C13","OBJECT_ID":"2025-135W","EPOCH":"2026-07-11T22:03:14.928192","CLASSIFICATION_TYPE":"U","MEAN_MOTION":15.21381362,"ECCENTRICITY":0.00020234,"INCLINATION":97.4795,"RA_OF_ASC_NODE":308.12,"ARG_OF_PERICENTER":70.8454,"MEAN_ANOMALY":289.3001,"EPHEMERIS_TYPE":0,"NORAD_CAT_ID":64548,"ELEMENT_SET_NO":999,"REV_AT_EPOCH":5861,"BSTAR":0.00016066717,"MEAN_MOTION_DOT":0.00003532,"MEAN_MOTION_DDOT":0}]}
